satname,norad_id,inclination_deg,eccentricity,mean_motion_rev_per_day,perigee_km,apogee_km,l1,l2
STARLINK-1265,45406,53.1595,0.0001802,15.31214623,470.95283256460243,473.4216894282654,1 45406U 20019AY  26089.07601468  .00100616  00000+0  32595-2 0  9997,2 45406  53.1595  34.6198 0001802 110.5510 249.5685 15.31214623333099
STARLINK-1278,45408,53.0454,0.0003636,15.59259619,387.3378180830132,392.25946088004457,1 45408U 20019BA  26089.12018118  .00132740  00000+0  16375-2 0  9990,2 45408  53.0454  31.2108 0003636 113.5926 246.5468 15.59259619333145
STARLINK-1296,45412,53.1588,0.0002375,15.31744834,468.9797741187276,472.2329272102925,1 45412U 20019BE  26089.12994111  .00066594  00000+0  21356-2 0  9999,2 45412  53.1588  34.2165 0002375 132.1041 228.0163 15.31744834333100
STARLINK-1309,45414,53.0669,0.0006889,15.58613618,387.0048690970625,396.3323072364392,1 45414U 20019BG  26089.04404757  .00122353  00000+0  15481-2 0  9992,2 45414  53.0669  24.9877 0006889 108.1092 252.0671 15.58613618333206
STARLINK-1316,45415,53.1614,0.0001615,15.3182264,469.2684015615541,471.4804707554331,1 45415U 20019BH  26089.56657937  .00069553  00000+0  22237-2 0  9999,2 45415  53.1614  32.2336 0001615 143.7568 216.3543 15.31822640333192
STARLINK-1286,45417,53.0496,0.0003797,15.5248594,406.89329724053823,412.04780641539674,1 45417U 20019BK  26089.53970841  .00050789  00000+0  81748-3 0  9994,2 45417  53.0496  30.4201 0003797 113.2632 246.8778 15.52485940333468
STARLINK-1308,45419,53.0526,0.000582,15.5436708,400.0458742599012,407.940273665994,1 45419U 20019BM  26089.60454167  .00120854  00000+0  17909-2 0  9990,2 45419  53.0526  51.3791 0005820  97.0233 263.1439 15.54367080332927
STARLINK-1329,45531,53.0466,6.45e-05,15.65283317,371.98865558723355,372.8594779648465,1 45531U 20025A   26089.39399103  .00069743  00000+0  68883-3 0  9993,2 45531  53.0466 340.4417 0000645 130.3250 229.7821 15.65283317328685
STARLINK-1338,45532,53.0491,0.0004091,15.5804906,390.5336492214701,396.07404212139863,1 45532U 20025B   26088.99276151  .00112733  00000+0  14601-2 0  9992,2 45532  53.0491 346.3496 0004091  89.8602 270.2879 15.58049060328562
STARLINK-1350,45535,53.0728,0.0002123,15.36623828,454.65061855752447,457.5524362362585,1 45535U 20025E   26088.89148840  .00014911  00000+0  42077-3 0  9995,2 45535  53.0728 298.2312 0002123 107.9506 252.1728 15.36623828329265
STARLINK-1362,45538,53.1624,0.0001214,15.30333206,473.9854205035999,475.64931782443364,1 45538U 20025H   26089.49033989 -.00110859  00000+0 -37710-2 0  9999,2 45538  53.1624   4.3709 0001214  88.4545 271.6595 15.30333206328366
STARLINK-1368,45540,53.1617,0.0001392,15.30191877,474.28533335622615,476.1933133246448,1 45540U 20025K   26089.04372466  .00001091  00000+0  48960-4 0  9995,2 45540  53.1617   6.7844 0001392  90.4952 269.6209 15.30191877328285
STARLINK-1371,45542,53.0508,0.0002111,15.50412048,414.08797524440706,416.95625812347134,1 45542U 20025M   26089.01073295  .00099004  00000+0  16981-2 0  9999,2 45542  53.0508 352.0993 0002111 123.2003 236.9207 15.50412048328484
STARLINK-1372,45543,53.1616,0.0001262,15.3019808,474.35590844459784,476.08569595387326,1 45543U 20025N   26089.47770316 -.00000016  00000+0  11579-4 0  9994,2 45543  53.1616   4.4654 0001262  92.0116 268.1029 15.30198080327452
STARLINK-1373,45544,53.0498,0.0004474,15.54351472,401.00413035950714,407.07282097513416,1 45544U 20025P   26089.42490518  .00105505  00000+0  15686-2 0  9992,2 45544  53.0498 349.0871 0004474  99.0195 261.1321 15.54351472328564
STARLINK-1327,45555,53.0462,0.0006164,15.57668613,390.23178204547,398.58097352160075,1 45555U 20025AA  26088.94992481  .00065083  00000+0  86260-3 0  9999,2 45555  53.0462 328.5282 0006164 138.1474 222.0010 15.57668613328807
STARLINK-1356,45564,53.0517,0.0005167,15.47929065,419.2711320513472,426.299205020312,1 45564U 20025AK  26089.41219902  .00090697  00000+0  16992-2 0  9995,2 45564  53.0517 334.9565 0005167 116.8132 243.3404 15.47929065328756
STARLINK-1357,45565,53.0491,0.0004117,15.59907268,385.1396282895503,390.71080391828946,1 45565U 20025AL  26089.56609788  .00155041  00000+0  18597-2 0  9995,2 45565  53.0491 296.6725 0004117 203.8902 156.1920 15.59907268329317
STARLINK-1361,45567,53.0501,0.0006787,15.51167385,408.7071415178061,417.92586050007594,1 45567U 20025AN  26089.39485714  .00094180  00000+0  15729-2 0  9999,2 45567  53.0501 334.6396 0006787 104.8452 255.3309 15.51167385328764
STARLINK-1363,45568,53.0405,0.0004979,15.82148817,321.0278527383989,327.7022042583785,1 45568U 20025AP  26089.58336806  .00169647  00000+0  79717-3 0  9997,2 45568  53.0405 292.9614 0004979 141.1864 237.1422 15.82148817  5982
STARLINK-1366,45569,53.0399,0.0005421,15.80670285,324.90828940416304,332.1796729239413,1 45569U 20025AQ  26089.29377301  .00150642  00000+0  75991-3 0  9996,2 45569  53.0399 295.3661 0005421 135.7962 224.3492 15.80670285329290
STARLINK-1376,45570,53.1623,0.0001669,15.31873752,469.0791073784776,471.36508964556106,1 45570U 20025AR  26089.41512293  .00059390  00000+0  19001-2 0  9990,2 45570  53.1623 341.4409 0001669 158.0540 202.0533 15.31873752328676
STARLINK-1320,45572,53.0465,0.0004508,15.7207487,349.93350047410513,356.00226463621766,1 45572U 20025AT  26089.42730409  .00110008  00000+0  81563-3 0  9991,2 45572  53.0465 243.1470 0004508 103.0848 257.0673 15.72074870330063
STARLINK-1321,45573,53.0486,0.0004053,15.51757374,408.8430748182509,414.34683153949754,1 45573U 20025AU  26089.06767165  .00100371  00000+0  16404-2 0  9994,2 45573  53.0486 320.6846 0004053 143.1578 216.9710 15.51757374328624
STARLINK-1331,45578,53.0527,0.0005364,15.51668465,408.21216244560037,415.4964651270311,1 45578U 20025AZ  26089.14071214  .00094610  00000+0  15524-2 0  9991,2 45578  53.0527 327.0311 0005364 163.2381 196.8806 15.51668465328853
STARLINK-1333,45580,53.1608,0.0001489,15.30190946,474.2216350161643,476.2625713130856,1 45580U 20025BB  26089.39814952  .00000428  00000+0  26597-4 0  9993,2 45580  53.1608 341.6220 0001489  93.9552 266.1619 15.30190946328675
STARLINK-1335,45581,53.1563,0.0001289,15.29349067,476.87325522619176,478.64070469422586,1 45581U 20025BC  26088.96169332 -.00000513  00000+0 -54467-5 0  9996,2 45581  53.1563 341.0035 0001289  85.1772 274.9376 15.29349067328630
STARLINK-1337,45582,53.0525,0.0004768,15.62084051,378.4149682901707,384.86108975784737,1 45582U 20025BD  26089.63595340  .00137879  00000+0  15249-2 0  9990,2 45582  53.0525 319.7554 0004768 174.3134 185.7934 15.62084051328987
STARLINK-1347,45586,53.0432,0.0003385,15.5823186,390.4822989721961,395.06620589009253,1 45586U 20025BH  26089.55387239  .00131076  00000+0  16814-2 0  9993,2 45586  53.0432 288.4210 0003385 153.4374 206.6812 15.58231860329411
STARLINK-1364,45589,53.0499,0.0007198,15.53145778,402.66364948519004,412.4323215903705,1 45589U 20025BL  26089.62515437  .00111029  00000+0  17221-2 0  9996,2 45589  53.0499 322.5376 0007198 140.2106 219.9432 15.53145778328942
STARLINK-1365,45590,53.0523,0.0004408,15.48431909,418.3155188704777,424.3099137403724,1 45590U 20025BM  26089.14966471  .00108263  00000+0  19872-2 0  9993,2 45590  53.0523 355.8273 0004408 123.4261 236.7168 15.48431909328450
STARLINK-1443,45660,53.136,0.00033,15.26848716,482.9747830317765,487.5046116520225,1 45660U 20035D   26089.08350257  .00040773  00000+0  15298-2 0  9993,2 45660  53.1360 330.7316 0003300 136.5843 223.5416 15.26848716321872
STARLINK-1446,45663,53.0235,0.0001671,15.43765259,433.87005552242863,436.14700875927065,1 45663U 20035G   26089.46893083  .00026291  00000+0  57950-3 0  9998,2 45663  53.0235 260.6067 0001671   3.2022 356.8993 15.43765259322888
STARLINK-1448,45665,53.0496,0.0006997,15.56562401,392.87372838646115,402.3557153460406,1 45665U 20035J   26089.61067514  .00131542  00000+0  17945-2 0  9994,2 45665  53.0496 311.6703 0006997 165.0095 195.1124 15.56562401322176
STARLINK-1451,45668,53.0532,0.0001958,15.11105517,531.4740960839099,534.1804296892551,1 45668U 20035M   26089.38935348  .00030085  00000+0  17856-2 0  9991,2 45668  53.0532 332.5292 0001958  99.3328 260.7885 15.11105517321876
STARLINK-1452,45669,53.0302,0.0005174,15.48108731,418.74044542781303,425.777495177882,1 45669U 20035N   26088.97054122  .00048891  00000+0  91892-3 0  9995,2 45669  53.0302 284.8615 0005174 131.8626 228.2823 15.48108731322500
STARLINK-1453,45670,53.0443,0.0002871,15.5697204,394.48122679534936,398.37118098702376,1 45670U 20035P   26089.58336806  .00132074  00000+0  17757-2 0  9991,2 45670  53.0443 272.3474 0002871 135.9852 141.2736 15.56972040  5865
STARLINK-1454,45671,53.0497,0.0006748,15.55212973,396.95869206325096,406.1085355236264,1 45671U 20035Q   26089.59980439  .00131140  00000+0  18806-2 0  9999,2 45671  53.0497 312.0495 0006748 146.7471 213.3964 15.55212973322164
STARLINK-1456,45673,53.0484,0.0002599,15.53381287,405.09869262254233,408.62553516194384,1 45673U 20035S   26089.61741529  .00114206  00000+0  17568-2 0  9997,2 45673  53.0484 305.6645 0002599 214.0618 146.0225 15.53381287322276
STARLINK-1457,45674,53.0435,0.000447,15.85066341,313.1456021774793,319.1302839765913,1 45674U 20035T   26089.58336806  .00200677  00000+0  81811-3 0  9993,2 45674  53.0435 277.3288 0004470 163.9606 198.0598 15.85066341  5836
STARLINK-1458,45675,53.0525,0.0006296,15.45474646,425.69738292313286,434.2701686039736,1 45675U 20035U   26088.35306948  .00100151  00000+0  20381-2 0  9992,2 45675  53.0525 321.9686 0006296 150.3931 209.7433 15.45474646321896
STARLINK-1460,45676,53.1612,0.0001488,15.30191635,474.22026341087167,476.25982841973564,1 45676U 20035V   26089.36914398  .00001277  00000+0  55237-4 0  9998,2 45676  53.1612 328.8942 0001488  90.3206 269.7965 15.30191635321885
STARLINK-1392,45677,53.155,0.0001467,15.29349266,476.75062567142413,478.7621447906504,1 45677U 20035W   26089.37306492  .00002030  00000+0  82666-4 0  9994,2 45677  53.1550 328.8065 0001467  92.3353 267.7816 15.29349266321926
